SATELIOT_3              
1 60552U 24149CN  26068.79802274  .00002865  00000+0  25003-3 0  9992
2 60552  97.6866 147.0596 0005831  63.3535 296.8284 14.97601684 85206
STARLINK-34089          
1 64039U 25102T   26068.53263537  .00005056  00000+0  43099-3 0  9991
2 64039  70.0009 115.0499 0003357 269.0901  90.9874 14.98352565 45929
